<?xml version="1.0" encoding="UTF-8"?>
<kml xmlns="http://www.opengis.net/kml/2.2" xmlns:gx="http://www.google.com/kml/ext/2.2" xmlns:kml="http://www.opengis.net/kml/2.2" xmlns:atom="http://www.w3.org/2005/Atom">
<Document>
	<name>kml_file_with_ground_overlay.kml</name>
<Folder>
	<name>Overlay folder</name>
	<GroundOverlay>
		<name>Provincial Boundary</name>
		<Icon>
			<href>https://example.com/wms?service=wms&amp;request=GetMap</href>
		</Icon>
		<LatLonBox>
			<north>55.4</north>
			<south>52.9</south>
			<east>-117.4</east>
			<west>-122.5</west>
		</LatLonBox>
	</GroundOverlay>
</Folder>
</Document>
</kml>
