<?xml version="1.0" encoding="UTF-8"?>
<kml xmlns="http://www.opengis.net/kml/2.2">
  <Document>
    <name>test.kml</name>
    <Folder>
      <name>Poly folder</name>
      <Placemark>
        <name>Poly 1</name>
        <description>This is a description</description>
        <Polygon><outerBoundaryIs><LinearRing><coordinates>10,20,-5.976855754852295e-05 11,20,-5.976855754852295e-05 11,21,-5.976855754852295e-05 10,21,-5.976855754852295e-05 10,20,-5.976855754852295e-05</coordinates></LinearRing></outerBoundaryIs></Polygon>
      </Placemark>
      <Placemark>
        <name>Poly 2</name>
        <description>This is a description also</description>
        <Polygon><outerBoundaryIs><LinearRing><coordinates>30,40 31,40 31,41 30,41 30,40</coordinates></LinearRing></outerBoundaryIs></Polygon>
      </Placemark>
    </Folder>
  </Document>
</kml>
